NORAD_CAT_ID,OBJECT_NAME,OBJECT_TYPE,EPOCH,MEAN_MOTION,ECCENTRICITY,INCLINATION,RA_OF_ASC_NODE,ARG_OF_PERICENTER,MEAN_ANOMALY,BSTAR,MEAN_MOTION_DOT,MEAN_MOTION_DDOT,TLE_LINE0,TLE_LINE1,TLE_LINE2,SEMIMAJOR_AXIS,PERIOD,APOGEE,PERIGEE,DECAYED
53891.0,STARLINK-5041,PAYLOAD,2023-03-27 19:57:53,15.08872302,0.0001343,53.2154,122.8851,113.9214,246.1919,0.00093293,0.00014604,0.0,0 STARLINK-5041,1 53891U 22119F   23086.83186683  .00014604  00000-0  93293-3 0  9997,2 53891  53.2154 122.8851 0001343 113.9214 246.1919 15.08872302 28960,6917.782,95.436,540.576,538.718,0.0
53891.0,STARLINK-5041,PAYLOAD,2023-03-28 02:19:26,15.08855152,0.0001724,53.2165,121.698,103.2425,256.8759,0.00043566,6.655e-05,0.0,0 STARLINK-5041,1 53891U 22119F   23087.09683250  .00006655  00000-0  43566-3 0  9993,2 53891  53.2165 121.6980 0001724 103.2425 256.8759 15.08855152 28583,6917.834,95.437,540.892,538.506,0.0
53891.0,STARLINK-5041,PAYLOAD,2023-03-28 11:51:44,15.08857011,0.0001281,53.2171,119.9122,95.2254,264.8884,0.00035077,5.302e-05,0.0,0 STARLINK-5041,1 53891U 22119F   23087.49426985  .00005302  00000-0  35077-3 0  9993,2 53891  53.2171 119.9122 0001281  95.2254 264.8884 15.08857011 29064,6917.828,95.436,540.58,538.807,0.0
53891.0,STARLINK-5041,PAYLOAD,2023-03-29 02:10:13,15.08846715,0.0001342,53.2171,117.2372,87.7417,272.3729,0.00010417,1.371e-05,0.0,0 STARLINK-5041,1 53891U 22119F   23088.09043101  .00001371  00000-0  10417-3 0  9998,2 53891  53.2171 117.2372 0001342  87.7417 272.3729 15.08846715 28731,6917.86,95.437,540.653,538.796,0.0
53891.0,STARLINK-5041,PAYLOAD,2023-03-29 08:31:45,15.08851167,0.0001555,53.2171,116.0444,115.7578,244.3574,0.00013999,1.941e-05,0.0,0 STARLINK-5041,1 53891U 22119F   23088.35538709  .00001941  00000-0  13999-3 0  9991,2 53891  53.2171 116.0444 0001555 115.7578 244.3574 15.08851167 29199,6917.846,95.437,540.787,538.636,0.0
53891.0,STARLINK-5041,PAYLOAD,2023-03-30 08:22:32,15.08847449,0.0001427,53.218,111.588,99.0141,261.1012,0.00013808,1.911e-05,0.0,0 STARLINK-5041,1 53891U 22119F   23089.34898886  .00001911  00000-0  13808-3 0  9992,2 53891  53.2180 111.5880 0001427  99.0141 261.1012 15.08847449 28923,6917.858,95.437,540.71,538.735,0.0
53891.0,STARLINK-5041,PAYLOAD,2023-03-31 01:51:47,15.08837958,0.0001308,53.2173,108.3164,99.0737,261.0403,3.3539e-05,2.46e-06,0.0,0 STARLINK-5041,1 53891U 22119F   23090.07763359  .00000246  00000-0  33539-4 0  9994,2 53891  53.2173 108.3164 0001308  99.0737 261.0403 15.08837958 29033,6917.887,95.438,540.656,538.847,0.0
53891.0,STARLINK-5041,PAYLOAD,2023-03-31 08:13:19,15.08848515,0.0001562,53.2173,107.1273,105.6804,254.436,-0.00010385,-1.941e-05,0.0,0 STARLINK-5041,1 53891U 22119F   23090.34258759 -.00001941  00000-0 -10385-3 0  9995,2 53891  53.2173 107.1273 0001562 105.6804 254.4360 15.08848515 29075,6917.854,95.437,540.8,538.639,0.0
53891.0,STARLINK-5041,PAYLOAD,2023-03-31 17:45:38,15.08840806,0.0001371,53.2172,105.3424,103.1107,257.0038,0.00011421,1.53e-05,0.0,0 STARLINK-5041,1 53891U 22119F   23090.74003222  .00001530  00000-0  11421-3 0  9996,2 53891  53.2172 105.3424 0001371 103.1107 257.0038 15.08840806 29132,6917.878,95.438,540.691,538.794,0.0
53891.0,STARLINK-5041,PAYLOAD,2023-04-01 08:04:07,15.08830363,0.000148,53.2185,102.6665,106.2264,253.8891,-4.6816e-05,-1.033e-05,0.0,0 STARLINK-5041,1 53891U 22119F   23091.33619978 -.00001033  00000-0 -46816-4 0  9990,2 53891  53.2185 102.6665 0001480 106.2264 253.8891 15.08830363 29220,6917.91,95.438,540.799,538.751,0.0
53891.0,STARLINK-5041,PAYLOAD,2023-04-01 17:36:26,15.08839389,0.0001444,53.2192,100.8824,99.7594,260.3561,2.8908e-05,1.72e-06,0.0,0 STARLINK-5041,1 53891U 22119F   23091.73363940  .00000172  00000-0  28908-4 0  9992,2 53891  53.2192 100.8824 0001444  99.7594 260.3561 15.08839389 29704,6917.882,95.438,540.746,538.748,0.0
53891.0,STARLINK-5041,PAYLOAD,2023-04-02 04:44:08,15.08838867,0.000159,53.2195,98.8008,103.3711,256.7459,0.00014015,1.943e-05,0.0,0 STARLINK-5041,1 53891U 22119F   23092.19731918  .00001943  00000-0  14015-3 0  9997,2 53891  53.2195  98.8008 0001590 103.3711 256.7459 15.08838867 29358,6917.884,95.438,540.849,538.649,0.0
53891.0,STARLINK-5041,PAYLOAD,2023-04-02 09:30:17,15.08840567,0.0001331,53.2182,97.9077,98.1653,261.949,0.00015149,2.124e-05,0.0,0 STARLINK-5041,1 53891U 22119F   23092.39603777  .00002124  00000-0  15149-3 0  9991,2 53891  53.2182  97.9077 0001331  98.1653 261.9490 15.08840567 29802,6917.879,95.438,540.664,538.823,0.0
53891.0,STARLINK-5041,PAYLOAD,2023-04-02 17:27:13,15.08842372,0.0001484,53.2182,96.4206,88.7006,271.4156,8.1202e-05,1.005e-05,0.0,0 STARLINK-5041,1 53891U 22119F   23092.72723832  .00001005  00000-0  81202-4 0  9994,2 53891  53.2182  96.4206 0001484  88.7006 271.4156 15.08842372 29852,6917.873,95.437,540.765,538.712,0.0
53891.0,STARLINK-5041,PAYLOAD,2023-04-03 09:21:04,15.08843888,0.0001311,53.2177,93.4461,91.5319,268.5823,0.00015689,2.21e-05,0.0,0 STARLINK-5041,1 53891U 22119F   23093.38963649  .00002210  00000-0  15689-3 0  9993,2 53891  53.2177  93.4461 0001311  91.5319 268.5823 15.08843888 29530,6917.869,95.437,540.64,538.827,0.0
53891.0,STARLINK-5041,PAYLOAD,2023-04-03 17:18:00,15.08839567,0.000114,53.217,91.9602,93.9,266.2122,0.000103,1.352e-05,0.0,0 STARLINK-5041,1 53891U 22119F   23093.72083967  .00001352  00000-0  10300-3 0  9998,2 53891  53.2170  91.9602 0001140  93.9000 266.2122 15.08839567 30006,6917.882,95.438,540.535,538.958,0.0
53891.0,STARLINK-5041,PAYLOAD,2023-04-04 09:11:52,15.08836603,0.0001292,53.2184,88.9859,96.76,263.3539,-2.9319e-05,-7.54e-06,0.0,0 STARLINK-5041,1 53891U 22119F   23094.38324597 -.00000754  00000-0 -29319-4 0  9996,2 53891  53.2184  88.9859 0001292  96.7600 263.3539 15.08836603 29686,6917.891,95.438,540.65,538.862,0.0
53891.0,STARLINK-5041,PAYLOAD,2023-04-05 04:16:29,15.08843169,0.000129,53.2181,85.4195,82.0006,278.1133,7.8464e-05,9.61e-06,0.0,0 STARLINK-5041,1 53891U 22119F   23095.17811990  .00000961  00000-0  78464-4 0  9995,2 53891  53.2181  85.4195 0001290  82.0006 278.1133 15.08843169 29807,6917.871,95.437,540.628,538.843,0.0
53891.0,STARLINK-5041,PAYLOAD,2023-04-05 09:02:38,15.08850761,0.0001332,53.2193,84.525,93.4452,266.6693,8.6523e-05,1.09e-05,0.0,0 STARLINK-5041,1 53891U 22119F   23095.37683401  .00001090  00000-0  86523-4 0  9990,2 53891  53.2193  84.5250 0001332  93.4452 266.6693 15.08850761 30250,6917.847,95.437,540.634,538.791,0.0
53891.0,STARLINK-5041,PAYLOAD,2023-04-06 02:31:53,15.08840581,0.0001145,53.2184,81.2541,87.6698,272.4426,0.00016277,2.304e-05,0.0,0 STARLINK-5041,1 53891U 22119F   23096.10547717  .00002304  00000-0  16277-3 0  9998,2 53891  53.2184  81.2541 0001145  87.6698 272.4426 15.08840581 29948,6917.879,95.438,540.536,538.952,0.0
53891.0,STARLINK-5041,PAYLOAD,2023-04-06 07:18:02,15.08843605,0.0001216,53.2178,80.3617,88.2024,271.9107,0.00020357,2.954e-05,0.0,0 STARLINK-5041,1 53891U 22119F   23096.30419404  .00002954  00000-0  20357-3 0  9996,2 53891  53.2178  80.3617 0001216  88.2024 271.9107 15.08843605 30395,6917.869,95.437,540.576,538.893,0.0
53891.0,STARLINK-5041,PAYLOAD,2023-04-07 02:22:40,15.08840445,0.0001451,53.2196,76.7934,103.3631,256.7523,-7.4496e-06,-4.07e-06,0.0,0 STARLINK-5041,1 53891U 22119F   23097.09908191 -.00000407  00000-0 -74496-5 0  9997,2 53891  53.2196  76.7934 0001451 103.3631 256.7523 15.08840445 30099,6917.879,95.438,540.748,538.74,0.0
53891.0,STARLINK-5041,PAYLOAD,2023-04-07 08:44:12,15.08843789,0.0001245,53.2187,75.6049,87.8907,272.2228,1.7909e-05,-3e-08,0.0,0 STARLINK-5041,1 53891U 22119F   23097.36403926 -.00000003  00000-0  17909-4 0  9999,2 53891  53.2187  75.6049 0001245  87.8907 272.2228 15.08843789 30557,6917.869,95.437,540.595,538.873,0.0
53891.0,STARLINK-5041,PAYLOAD,2023-04-08 05:24:14,15.0883522,0.0001055,53.2186,71.7396,96.7444,263.3668,2.1219e-06,-2.54e-06,0.0,0 STARLINK-5041,1 53891U 22119F   23098.22516525 -.00000254  00000-0  21219-5 0  9993,2 53891  53.2186  71.7396 0001055  96.7444 263.3668 15.08835220 30260,6917.895,95.438,540.49,539.03,0.0
53891.0,STARLINK-5041,PAYLOAD,2023-04-08 08:35:00,15.0883583,0.0001043,53.2189,71.1445,93.4818,266.6294,1.9933e-05,2.9e-07,0.0,0 STARLINK-5041,1 53891U 22119F   23098.35764525  .00000029  00000-0  19933-4 0  9990,2 53891  53.2189  71.1445 0001043  93.4818 266.6294 15.08835830 30705,6917.893,95.438,540.48,539.037,0.0
53891.0,STARLINK-5041,PAYLOAD,2023-04-09 06:50:24,15.0884482,0.0001088,53.2184,66.9813,97.0401,263.0715,0.0001071,1.417e-05,0.0,0 STARLINK-5041,1 53891U 22119F   23099.28500084  .00001417  00000-0  10710-3 0  9996,2 53891  53.2184  66.9813 0001088  97.0401 263.0715 15.08844820 30425,6917.866,95.437,540.483,538.978,0.0
53891.0,STARLINK-5041,PAYLOAD,2023-04-10 08:16:35,15.0882658,0.0001301,53.2185,62.2239,101.8293,258.2845,0.00031899,4.791e-05,0.0,0 STARLINK-5041,1 53891U 22119F   23100.34485120  .00004791  00000-0  31899-3 0  9998,2 53891  53.2185  62.2239 0001301 101.8293 258.2845 15.08826580 30588,6917.921,95.438,540.686,538.886,0.0
53891.0,STARLINK-5041,PAYLOAD,2023-04-10 17:48:53,15.08842365,0.0001228,53.2181,60.4403,86.3179,273.7953,8.6552e-05,1.09e-05,0.0,0 STARLINK-5041,1 53891U 22119F   23100.74228630  .00001090  00000-0  86552-4 0  9999,2 53891  53.2181  60.4403 0001228  86.3179 273.7953 15.08842365 30643,6917.873,95.437,540.588,538.889,0.0
53891.0,STARLINK-5041,PAYLOAD,2023-04-10 20:59:39,15.0884343,0.0001209,53.2181,59.8445,89.4569,270.6562,8.6253e-05,1.085e-05,0.0,0 STARLINK-5041,1 53891U 22119F   23100.87476509  .00001085  00000-0  86253-4 0  9995,2 53891  53.2181  59.8445 0001209  89.4569 270.6562 15.08843430 31082,6917.87,95.437,540.571,538.899,0.0
53891.0,STARLINK-5041,PAYLOAD,2023-04-11 03:21:11,15.0885241,0.000109,53.2181,58.6552,99.8635,260.2481,8.3383e-05,1.04e-05,0.0,0 STARLINK-5041,1 53891U 22119F   23101.13971821  .00001040  00000-0  83383-4 0  9994,2 53891  53.2181  58.6552 0001090  99.8635 260.2481 15.08852410 30706,6917.842,95.437,540.462,538.953,0.0
